GLOBALSTAR M035 [-]     
1 25851U 99037A   23302.91940502 -.00000012  00000+0  19341-2 0  9992
2 25851  51.9955 304.6805 0013764  94.5633 350.0175 11.04526815 30371
GLOBALSTAR M032 [-]     
1 25852U 99037B   23302.91550280 -.00000064  00000+0  74899-4 0  9991
2 25852  51.9923 171.0292 0007136 241.5181 118.4901 11.19045100 68037
GLOBALSTAR M051 [-]     
1 25853U 99037C   23303.17803159 -.00000076  00000+0 -97046-4 0  9990
2 25853  51.9821  38.6703 0001500 207.9951 152.0779 11.42192835 64307
GLOBALSTAR M030 [-]     
1 25854U 99037D   23303.11493682 -.00000134  00000+0 -12524-2 0  9992
2 25854  51.9867 242.8270 0005030  54.0053 306.1230 11.55089223 81260
GLOBALSTAR M048 [-]     
1 25872U 99041A   23302.75563260 -.00000056  00000+0  36985-3 0  9996
2 25872  51.9376 311.6614 0013086 232.4653 298.8443 11.33840652 57320
GLOBALSTAR M026 [-]     
1 25873U 99041B   23302.65443517 -.00000050  00000+0  52323-3 0  9996
2 25873  52.0015  69.5155 0001276  24.6848  74.5332 11.06829446 82431
GLOBALSTAR M043 [-]     
1 25874U 99041C   23302.75169286 -.00000074  00000+0 -16480-3 0  9997
2 25874  51.9430  35.5407 0013174  17.0880 154.2766 11.25675326 55700
GLOBALSTAR M028 [-]     
1 25875U 99041D   23302.98915936 -.00000060  00000+0  25846-3 0  9994
2 25875  51.9608 170.7595 0062761 216.2563 143.4036 12.50542980115610
